NORAD_CAT_ID,OBJECT_NAME,OBJECT_TYPE,EPOCH,MEAN_MOTION,ECCENTRICITY,INCLINATION,RA_OF_ASC_NODE,ARG_OF_PERICENTER,MEAN_ANOMALY,BSTAR,MEAN_MOTION_DOT,MEAN_MOTION_DDOT,TLE_LINE0,TLE_LINE1,TLE_LINE2,SEMIMAJOR_AXIS,PERIOD,APOGEE,PERIGEE,DECAYED
54102.0,STARLINK-5179,PAYLOAD,2024-03-19 03:07:02,15.08838299,0.0001412,53.2185,328.8544,94.8504,265.2649,5.6669e-05,6.14e-06,0.0,0 STARLINK-5179,1 54102U 22136BD  24079.12989165  .00000614  00000-0  56669-4 0  9996,2 54102  53.2185 328.8544 0001412  94.8504 265.2649 15.08838299 78675,6917.886,95.438,540.727,538.774,0.0
54102.0,STARLINK-5179,PAYLOAD,2024-03-19 20:36:16,15.08856501,0.0001826,53.2191,325.5849,122.4311,237.6858,1.6731e-05,-2.2e-07,0.0,0 STARLINK-5179,1 54102U 22136BD  24079.85852179 -.00000022  00000-0  16731-4 0  9990,2 54102  53.2191 325.5849 0001826 122.4311 237.6858 15.08856501 78780,6917.83,95.437,540.958,538.432,0.0
54102.0,STARLINK-5179,PAYLOAD,2024-03-20 01:22:25,15.08856766,0.0001321,53.2183,324.6902,117.7936,242.319,0.00020521,2.981e-05,0.0,0 STARLINK-5179,1 54102U 22136BD  24080.05723433  .00002981  00000-0  20521-3 0  9990,2 54102  53.2183 324.6902 0001321 117.7936 242.3190 15.08856766 78348,6917.829,95.436,540.608,538.78,0.0
54102.0,STARLINK-5179,PAYLOAD,2024-03-20 20:27:04,15.08837798,0.0001926,53.2183,321.1226,130.2024,229.9137,4.3916e-05,4.11e-06,0.0,0 STARLINK-5179,1 54102U 22136BD  24080.85213212  .00000411  00000-0  43916-4 0  9997,2 54102  53.2183 321.1226 0001926 130.2024 229.9137 15.08837798 78939,6917.887,95.438,541.085,538.42,0.0
54102.0,STARLINK-5179,PAYLOAD,2024-03-20 22:02:26,15.08855428,0.0002074,53.2176,320.8237,138.5412,221.5738,-0.0002492,-4.254e-05,0.0,0 STARLINK-5179,1 54102U 22136BD  24080.91836737 -.00004254  00000-0 -24920-3 0  9991,2 54102  53.2176 320.8237 0002074 138.5412 221.5738 15.08855428 78470,6917.833,95.437,541.133,538.263,0.0
54102.0,STARLINK-5179,PAYLOAD,2024-03-21 09:10:09,15.08838283,0.000116,53.2181,318.7442,105.6594,254.4526,5.8843e-05,6.49e-06,0.0,0 STARLINK-5179,1 54102U 22136BD  24081.38205440  .00000649  00000-0  58843-4 0  9998,2 54102  53.2181 318.7442 0001160 105.6594 254.4526 15.08838283 78549,6917.886,95.438,540.553,538.948,0.0
54102.0,STARLINK-5179,PAYLOAD,2024-03-21 21:53:14,15.08849595,0.0001331,53.2165,316.3694,70.6678,289.4458,0.00014308,1.991e-05,0.0,0 STARLINK-5179,1 54102U 22136BD  24081.91196897  .00001991  00000-0  14308-3 0  9990,2 54102  53.2165 316.3694 0001331  70.6678 289.4458 15.08849595 79099,6917.851,95.437,540.637,538.795,0.0
54102.0,STARLINK-5179,PAYLOAD,2024-03-22 01:03:59,15.08856451,0.0001596,53.2194,315.7661,121.1169,238.998,0.00020821,3.029e-05,0.0,0 STARLINK-5179,1 54102U 22136BD  24082.04444378  .00003029  00000-0  20821-3 0  9996,2 54102  53.2194 315.7661 0001596 121.1169 238.9980 15.08856451 78646,6917.83,95.437,540.799,538.591,0.0
54102.0,STARLINK-5179,PAYLOAD,2024-03-22 21:44:01,15.0884346,0.0001396,53.217,311.9084,67.255,292.859,0.00017398,2.482e-05,0.0,0 STARLINK-5179,1 54102U 22136BD  24082.90557183  .00002482  00000-0  17398-3 0  9997,2 54102  53.2170 311.9084 0001396  67.2550 292.8590 15.08843460 79248,6917.87,95.437,540.701,538.769,0.0
54102.0,STARLINK-5179,PAYLOAD,2024-03-23 21:34:48,15.08839034,0.0001497,53.2176,307.4408,88.3479,271.7685,5.9793e-05,6.64e-06,0.0,0 STARLINK-5179,1 54102U 22136BD  24083.89917462  .00000664  00000-0  59793-4 0  9992,2 54102  53.2176 307.4408 0001497  88.3479 271.7685 15.08839034 79399,6917.883,95.438,540.784,538.713,0.0
54102.0,STARLINK-5179,PAYLOAD,2024-03-24 00:45:34,15.08841457,0.0001404,53.2171,306.8482,77.5738,282.5411,6.7404e-05,7.85e-06,0.0,0 STARLINK-5179,1 54102U 22136BD  24084.03165382  .00000785  00000-0  67404-4 0  9997,2 54102  53.2171 306.8482 0001404  77.5738 282.5411 15.08841457 78944,6917.876,95.437,540.712,538.77,0.0
54102.0,STARLINK-5179,PAYLOAD,2024-03-24 21:25:36,15.08847308,0.000122,53.2164,302.9862,82.5883,277.5248,0.00039723,6.041e-05,0.0,0 STARLINK-5179,1 54102U 22136BD  24084.89277990  .00006041  00000-0  39723-3 0  9993,2 54102  53.2164 302.9862 0001220  82.5883 277.5248 15.08847308 79076,6917.858,95.437,540.567,538.879,0.0
54102.0,STARLINK-5179,PAYLOAD,2024-03-25 00:36:22,15.08856786,0.0001259,53.2162,302.3879,72.3944,287.7186,0.00062981,9.754e-05,0.0,0 STARLINK-5179,1 54102U 22136BD  24085.02525805  .00009754  00000-0  62981-3 0  9996,2 54102  53.2162 302.3879 0001259  72.3944 287.7186 15.08856786 79561,6917.829,95.436,540.565,538.823,0.0
54102.0,STARLINK-5179,PAYLOAD,2024-03-25 21:16:22,15.08859007,0.0001129,53.216,298.5248,83.8266,276.2854,0.00077742,0.00012113,0.0,0 STARLINK-5179,1 54102U 22136BD  24085.88637592  .00012113  00000-0  77742-3 0  9991,2 54102  53.2160 298.5248 0001129  83.8266 276.2854 15.08859007 79693,6917.822,95.436,540.468,538.906,0.0
54102.0,STARLINK-5179,PAYLOAD,2024-03-26 06:48:41,15.08853318,8.73e-05,53.2157,296.7386,66.8906,293.2179,0.00045747,7.003e-05,0.0,0 STARLINK-5179,1 54102U 22136BD  24086.28381535  .00007003  00000-0  45747-3 0  9991,2 54102  53.2157 296.7386 0000873  66.8906 293.2179 15.08853318 79754,6917.84,95.437,540.309,539.101,0.0
54102.0,STARLINK-5179,PAYLOAD,2024-03-26 21:07:11,15.08819637,0.0001045,53.215,294.0633,84.2805,275.8306,-0.00029394,-4.96e-05,0.0,0 STARLINK-5179,1 54102U 22136BD  24086.87999212 -.00004960  00000-0 -29394-3 0  9994,2 54102  53.2150 294.0633 0001045  84.2805 275.8306 15.08819637 79841,6917.943,95.439,540.531,539.085,0.0
54102.0,STARLINK-5179,PAYLOAD,2024-03-26 22:42:34,15.08821279,0.0001197,53.2157,293.7662,93.121,266.9919,-0.0002241,-3.851e-05,0.0,0 STARLINK-5179,1 54102U 22136BD  24086.94623249 -.00003851  00000-0 -22410-3 0  9996,2 54102  53.2157 293.7662 0001197  93.1210 266.9919 15.08821279 79388,6917.938,95.439,540.631,538.975,0.0
54102.0,STARLINK-5179,PAYLOAD,2024-03-27 13:01:03,15.08828684,9.41e-05,53.2141,291.0889,80.305,279.8049,0.00039208,5.956e-05,0.0,0 STARLINK-5179,1 54102U 22136BD  24087.54239787  .00005956  00000-0  39208-3 0  9992,2 54102  53.2141 291.0889 0000941  80.3050 279.8049 15.08828684 79945,6917.915,95.438,540.431,539.129,0.0
54102.0,STARLINK-5179,PAYLOAD,2024-03-27 20:57:58,15.08865461,0.0001174,53.2158,289.6051,84.55,275.5627,0.0016689,0.00026391,0.0,0 STARLINK-5179,1 54102U 22136BD  24087.87359487  .00026391  00000-0  16689-2 0  9991,2 54102  53.2158 289.6051 0001174  84.5500 275.5627 15.08865461 79996,6917.803,95.436,540.48,538.855,0.0
54102.0,STARLINK-5179,PAYLOAD,2024-03-28 12:51:49,15.08859792,0.000143,53.2154,286.6305,90.3737,269.7419,0.00060283,9.324e-05,0.0,0 STARLINK-5179,1 54102U 22136BD  24088.53598908  .00009324  00000-0  60283-3 0  9995,2 54102  53.2154 286.6305 0001430  90.3737 269.7419 15.08859792 80090,6917.82,95.436,540.674,538.696,0.0
54102.0,STARLINK-5179,PAYLOAD,2024-03-28 19:13:21,15.08869436,0.0001568,53.2151,285.4427,82.3375,277.7795,0.00071059,0.00011048,0.0,0 STARLINK-5179,1 54102U 22136BD  24088.80094470  .00011048  00000-0  71059-3 0  9999,2 54102  53.2151 285.4427 0001568  82.3375 277.7795 15.08869436 79663,6917.79,95.436,540.74,538.571,0.0
54102.0,STARLINK-5179,PAYLOAD,2024-03-29 12:42:36,15.08855633,0.0002039,53.2156,282.1697,79.6976,280.4246,0.0013904,0.00021919,0.0,0 STARLINK-5179,1 54102U 22136BD  24089.52958498  .00021919  00000-0  13904-2 0  9990,2 54102  53.2156 282.1697 0002039  79.6976 280.4246 15.08855633 80243,6917.833,95.437,541.108,538.287,0.0
54102.0,STARLINK-5179,PAYLOAD,2024-03-29 19:04:08,15.08862367,0.0002027,53.2158,280.9805,77.8404,282.2815,0.0015091,0.00023826,0.0,0 STARLINK-5179,1 54102U 22136BD  24089.79454267  .00023826  00000-0  15091-2 0  9992,2 54102  53.2158 280.9805 0002027  77.8404 282.2815 15.08862367 79810,6917.812,95.436,541.079,538.275,0.0
54102.0,STARLINK-5179,PAYLOAD,2024-03-30 06:11:50,15.08855212,6.08e-05,53.2162,278.8987,70.001,290.1048,0.0010143,0.00015898,0.0,0 STARLINK-5179,1 54102U 22136BD  24090.25821942  .00015898  00000-0  10143-2 0  9996,2 54102  53.2162 278.8987 0000608  70.0010 290.1048 15.08855212 80351,6917.834,95.437,540.119,539.278,0.0
54102.0,STARLINK-5179,PAYLOAD,2024-03-30 18:54:55,15.08854364,0.0001974,53.214,276.5183,89.6608,270.4611,0.00085773,0.00013395,0.0,0 STARLINK-5179,1 54102U 22136BD  24090.78814298  .00013395  00000-0  85773-3 0  9992,2 54102  53.2140 276.5183 0001974  89.6608 270.4611 15.08854364 80439,6917.836,95.437,541.067,538.336,0.0
54102.0,STARLINK-5179,PAYLOAD,2024-03-30 22:05:41,15.08846158,0.0001435,53.2209,275.925,84.554,275.5616,0.00061743,9.554e-05,0.0,0 STARLINK-5179,1 54102U 22136BD  24090.92062423  .00009554  00000-0  61743-3 0  9996,2 54102  53.2209 275.9250 0001435  84.5540 275.5616 15.08846158 79985,6917.862,95.437,540.719,538.734,0.0
54102.0,STARLINK-5179,PAYLOAD,2024-03-31 12:24:10,15.08839868,0.0001445,53.2175,273.2483,84.4507,275.665,0.00019019,2.74e-05,0.0,0 STARLINK-5179,1 54102U 22136BD  24091.51678588  .00002740  00000-0  19019-3 0  9996,2 54102  53.2175 273.2483 0001445  84.4507 275.6650 15.08839868 80542,6917.881,95.438,540.745,538.746,0.0
54102.0,STARLINK-5179,PAYLOAD,2024-03-31 18:45:42,15.08847882,0.0001109,53.2162,272.0606,75.4116,284.6999,0.00032798,4.937e-05,0.0,0 STARLINK-5179,1 54102U 22136BD  24091.78174284  .00004937  00000-0  32798-3 0  9998,2 54102  53.2162 272.0606 0001109  75.4116 284.6999 15.08847882 80119,6917.856,95.437,540.488,538.954,0.0
54102.0,STARLINK-5179,PAYLOAD,2024-04-01 12:14:57,15.08840842,0.0001207,53.2159,268.7879,76.8194,283.2933,0.00017565,2.509e-05,0.0,0 STARLINK-5179,1 54102U 22136BD  24092.51038673  .00002509  00000-0  17565-3 0  9999,2 54102  53.2159 268.7879 0001207  76.8194 283.2933 15.08840842 80223,6917.878,95.438,540.578,538.908,0.0
54102.0,STARLINK-5179,PAYLOAD,2024-04-01 18:36:29,15.08845672,0.0001091,53.2169,267.5993,85.6992,274.4125,0.00023884,3.516e-05,0.0,0 STARLINK-5179,1 54102U 22136BD  24092.77534490  .00003516  00000-0  23884-3 0  9995,2 54102  53.2169 267.5993 0001091  85.6992 274.4125 15.08845672 80730,6917.863,95.437,540.483,538.973,0.0
